STARLINK-3155           
1 49739U 21115R   26068.52700673 -.00000098  00000+0  11960-4 0  9992
2 49739  53.2178 159.8504 0001405 102.4242 257.6908 15.08843236235363
DISKSAT C               
1 67219U 25305A   26068.80315184  .00011541  00000+0  75564-3 0  9993
2 67219  45.0017 250.1278 0004534 310.7706  49.2776 15.07852977 12312
