[{"OBJECT_NAME":"STARLINK-3155","OBJECT_ID":"2021-115R","EPOCH":"2026-03-09T12:38:53.381472","MEAN_MOTION":15.08843236,"ECCENTRICITY":0.0001405,"INCLINATION":53.2178,"RA_OF_ASC_NODE":159.8504,"ARG_OF_PERICENTER":102.4242,"MEAN_ANOMALY":257.6908,"EPHEMERIS_TYPE":0,"CLASSIFICATION_TYPE":"U","NORAD_CAT_ID":49739,"ELEMENT_SET_NO":999,"REV_AT_EPOCH":23536,"BSTAR":1.1960171e-5,"MEAN_MOTION_DOT":-9.8e-7,"MEAN_MOTION_DDOT":0},{"OBJECT_NAME":"DISKSAT C","OBJECT_ID":"2025-305A","EPOCH":"2026-03-09T19:16:32.318976","MEAN_MOTION":15.07852977,"ECCENTRICITY":0.00045341,"INCLINATION":45.0017,"RA_OF_ASC_NODE":250.1278,"ARG_OF_PERICENTER":310.7706,"MEAN_ANOMALY":49.2776,"EPHEMERIS_TYPE":0,"CLASSIFICATION_TYPE":"U","NORAD_CAT_ID":67219,"ELEMENT_SET_NO":999,"REV_AT_EPOCH":1231,"BSTAR":0.00075564202,"MEAN_MOTION_DOT":0.00011541,"MEAN_MOTION_DDOT":0}]
